IRIDIUM 171             
1 43929U 19002H   24191.56901468  .00000085  00000+0  23445-4 0  9999
2 43929  86.3977 289.5132 0002278  89.1648 270.9808 14.34218559287535
IRIDIUM 170             
1 43930U 19002J   24191.55340398  .00001453  00000+0  22656-3 0  9991
2 43930  86.6095 289.3357 0002336  94.5596 265.5888 14.72243691295146
IRIDIUM 181             
1 56726U 23068S   24191.49633816  .00000086  00000+0  19707-4 0  9993
2 56726  86.8650 344.1473 0002432  90.2906 269.8574 14.43577140 60355
IRIDIUM 177             
1 56727U 23068T   24191.60141010  .00002060  00000+0  26767-3 0  9994
2 56727  86.1987 304.7175 0002381  84.8270 275.3222 14.80225875 61695
IRIDIUM 174             
1 56728U 23068U   24191.59597088  .00002072  00000+0  26926-3 0  9993
2 56728  86.1993 304.8256 0002366  93.9590 266.1902 14.80227204 61694
IRIDIUM 179             
1 56730U 23068W   24191.51751204  .00001903  00000+0  24705-3 0  9995
2 56730  86.6810 327.8016 0002456  98.3662 261.7838 14.80220503 61681
